     2.10           N: GPS NAV DATA                         RINEX VERSION / TYPE
teqc  2008Oct2      gpsops              20090105 00:05:35UTCPGM / RUN BY / DATE
Linux 2.4.20-8|Pentium IV|gcc -static|Linux|486/DX+         COMMENT
soc2rnx ver 1.20    gpsops               5-Jan-2009 00:05:32COMMENT
Forced Modulo Decimation to 30 seconds                      COMMENT
MADR                                    MARKER NAME         COMMENT
13407S012                               MARKER NUMBER       COMMENT
4849202.3940 -360328.9929 4114913.1862                      COMMENT
                                                            COMMENT
This data is provided as a public service by NASA/JPL.      COMMENT
No warranty is expressed or implied regarding suitability   COMMENT
for use.  For further information, contact:                 COMMENT
Dave Stowers, NASA/JPL m/s 238-600                          COMMENT
4800 Oak Grove Drive, Pasadena CA 91109 USA                 COMMENT
                                                            END OF HEADER
 2 09  1  4  6  0  0.0 1.633805222809D-04-1.932676241267D-12 0.000000000000D+00
    5.300000000000D+01 6.925000000000D+01 4.934491255653D-09-1.664332976892D+00
    3.619119524956D-06 8.898761589080D-03 8.491799235344D-06 5.153598970413D+03
    2.160000000000D+04-1.154839992523D-07 2.100884066688D+00-1.471489667892D-07
    9.418192029387D-01 2.073437500000D+02 2.694510553431D+00-8.295702692172D-09
    2.607251459631D-10 1.000000000000D+00 1.513000000000D+03 0.000000000000D+00
    2.000000000000D+00 0.000000000000D+00-1.722946763039D-08 5.300000000000D+01
    1.440000000000D+04
12 09  1  4  5 59 44.0-3.285054117441D-04 3.183231456205D-12 0.000000000000D+00
    1.200000000000D+01-4.125000000000D+01 4.608406244332D-09 3.022077265786D+00
   -2.186745405197D-06 3.094330895692D-03 5.882233381271D-06 5.153744424820D+03
    2.158400000000D+04 3.725290298462D-09 2.190223309306D-02 9.126961231232D-08
    9.660147532262D-01 2.657500000000D+02-8.319012336027D-01-8.097122991959D-09
   -1.107188976008D-11 1.000000000000D+00 1.513000000000D+03 0.000000000000D+00
    2.000000000000D+00 0.000000000000D+00-1.164153218269D-08 1.200000000000D+01
    1.440000000000D+04
14 09  1  4  5 59 44.0-1.729642972350D-04 5.115907697473D-12 0.000000000000D+00
    1.400000000000D+01-1.943750000000D+01 3.840874273545D-09-1.406518129800D+00
   -9.965151548386D-07 4.468044731766D-03 8.512288331985D-06 5.153562128067D+03
    2.158400000000D+04 8.009374141693D-08-2.041905444689D+00 8.568167686462D-08
    9.888268482187D-01 2.304687500000D+02-2.102531359259D+00-7.740322415498D-09
   -7.678891285216D-11 1.000000000000D+00 1.513000000000D+03 0.000000000000D+00
    2.000000000000D+00 0.000000000000D+00-9.313225746155D-09 1.400000000000D+01
    1.440000000000D+04
15 09  1  4  6  0  0.0-2.369643189013D-04-5.684341886081D-12 0.000000000000D+00
    4.700000000000D+01-3.431250000000D+01 4.585548149344D-09-8.165845193486D-01
   -1.914799213409D-06 1.349230995402D-03 7.696449756622D-06 5.153752771378D+03
    2.160000000000D+04-5.960464477539D-08-2.089887683068D+00-2.980232238770D-08
    9.570307684929D-01 2.306250000000D+02-8.217282197758D-01-8.137481815924D-09
   -7.500312418118D-11 1.000000000000D+00 1.513000000000D+03 0.000000000000D+00
    2.000000000000D+00 0.000000000000D+00-9.778887033463D-09 4.700000000000D+01
    1.440000000000D+04
18 09  1  4  6  0  0.0-9.647244587541D-05 3.751665644813D-12 0.000000000000D+00
    1.050000000000D+02 1.131250000000D+01 5.108427072207D-09 6.164175244927D-01
    5.755573511124D-07 9.890578920022D-03 4.826113581657D-06 5.153749069214D+03
    2.160000000000D+04-4.656612873077D-08-3.091395646477D+00 1.098960638046D-07
    9.447836528200D-01 2.781562500000D+02-2.437865844772D+00-8.633573908722D-09
   -2.200091642648D-10 1.000000000000D+00 1.513000000000D+03 0.000000000000D+00
    2.800000000000D+00 0.000000000000D+00-1.071020960808D-08 1.050000000000D+02
    1.440000000000D+04
22 09  1  4  6  0  0.0 2.071792259812D-04-5.684341886081D-13 0.000000000000D+00
    1.200000000000D+01 7.781250000000D+00 5.161643574602D-09-5.391344033519D-01
    4.284083843231D-07 4.978323704563D-03 4.757195711136D-06 5.153669340134D+03
    2.160000000000D+04-6.519258022308D-08-3.085394681907D+00 7.450580596924D-09
    9.424410133425D-01 2.787500000000D+02-1.812328901516D+00-8.611430129202D-09
   -1.535778257043D-10 1.000000000000D+00 1.513000000000D+03 0.000000000000D+00
    2.000000000000D+00 0.000000000000D+00-1.816079020500D-08 1.200000000000D+01
    1.440000000000D+04
29 09  1  4  6  0  0.0-2.058781683445D-05 2.614797267597D-12 0.000000000000D+00
    5.600000000000D+01-1.318750000000D+01 4.498044504465D-09 1.945572940168D+00
   -7.413327693939D-07 3.212932497263D-03 1.016445457935D-05 5.153766832352D+03
    2.160000000000D+04 7.264316082001D-08 1.088366917662D+00 1.117587089539D-08
    9.595875352897D-01 1.830000000000D+02-1.342848571742D+00-7.887828559721D-09
   -1.182192100189D-10 1.000000000000D+00 1.513000000000D+03 0.000000000000D+00
    2.000000000000D+00 0.000000000000D+00-8.847564458847D-09 5.600000000000D+01
    1.440000000000D+04
30 09  1  4  6  0  0.0 1.176595687866D-04 2.273736754432D-12 0.000000000000D+00
    3.800000000000D+01-4.018750000000D+01 5.053424781140D-09 2.332377750838D-01
   -2.101063728333D-06 1.115160924383D-02 6.053596735001D-06 5.153654787064D+03
    2.160000000000D+04-1.210719347000D-07-2.351551720711D-02 2.048909664154D-08
    9.509713910670D-01 2.580000000000D+02 1.415355727636D+00-8.568214043364D-09
   -4.535903224290D-11 1.000000000000D+00 1.513000000000D+03 0.000000000000D+00
    2.000000000000D+00 0.000000000000D+00-7.916241884232D-09 3.800000000000D+01
    1.440000000000D+04
 4 09  1  4  6  0  0.0-2.876608632505D-04-1.318767317571D-11 0.000000000000D+00
    7.300000000000D+01 7.590625000000D+01 4.962706716655D-09 1.178941569729D+00
    4.159286618233D-06 8.611546247266D-03 8.586794137955D-06 5.153656593323D+03
    2.160000000000D+04-4.842877388000D-08 2.119442939489D+00 6.332993507385D-08
    9.410790117411D-01 2.031250000000D+02 4.604582535802D-01-8.371420131822D-09
    5.893102614235D-11 1.000000000000D+00 1.513000000000D+03 0.000000000000D+00
    2.000000000000D+00 0.000000000000D+00-6.053596735001D-09 7.300000000000D+01
    1.482000000000D+04
 1 09  1  4  6  0  0.0-3.059436567128D-04-5.502442945726D-11 0.000000000000D+00
    6.500000000000D+01-2.334375000000D+01 5.044852995520D-09 1.877439564082D+00
   -1.391395926476D-06 9.768360643648D-03 9.488314390182D-06 5.153754224777D+03
    2.160000000000D+04 1.583248376846D-07 9.960272607848D-01-1.285225152969D-07
    9.351867887978D-01 1.805625000000D+02-1.485456168240D+00-8.133195923113D-09
   -1.617924535908D-10 1.000000000000D+00 1.513000000000D+03 0.000000000000D+00
    2.000000000000D+00 6.300000000000D+01-2.328306436539D-09 6.500000000000D+01
    1.677000000000D+04
31 09  1  4  6  0  0.0-4.631606861949D-05-1.591615728103D-12 0.000000000000D+00
    9.100000000000D+01 3.093750000000D+00 4.357324357192D-09 2.735789386643D+00
    3.613531589508D-07 7.085515651852D-03 7.139518857002D-06 5.153613710403D+03
    2.160000000000D+04 9.313225746155D-08-1.031799763973D+00 4.470348358154D-08
    9.708262717710D-01 2.453437500000D+02-1.214772629139D+00-7.931044645558D-09
    2.325096849617D-10 1.000000000000D+00 1.513000000000D+03 0.000000000000D+00
    4.000000000000D+00 0.000000000000D+00-1.303851604462D-08 9.100000000000D+01
    1.737000000000D+04
24 09  1  4  5 59 44.0 1.548207364976D-04 3.183231456205D-12 0.000000000000D+00
    7.600000000000D+01 6.709375000000D+01 4.833772774610D-09 4.990152399306D-01
    3.572553396225D-06 7.077537826262D-03 7.536262273788D-06 5.153665515900D+03
    2.158400000000D+04 9.313225746155D-09 2.163243553811D+00-1.396983861923D-07
    9.512771453343D-01 2.279687500000D+02-6.470946181797D-01-8.304274477793D-09
    1.753644474903D-10 1.000000000000D+00 1.513000000000D+03 0.000000000000D+00
    2.000000000000D+00 0.000000000000D+00-1.396983861923D-09 7.600000000000D+01
    1.899000000000D+04
 5 09  1  4  8  0  0.0-4.881643690169D-04-6.536993168993D-11 0.000000000000D+00
    4.500000000000D+01-2.978125000000D+01 5.105926968067D-09 1.817678500348D+00
   -1.754611730576D-06 9.361987933517D-03 5.835667252541D-06 5.153638254166D+03
    2.880000000000D+04-3.539025783539D-08-7.659516489606D-02-2.197921276093D-07
    9.450252010757D-01 2.569062500000D+02 1.295816467934D+00-8.341418882150D-09
    7.428880871279D-11 1.000000000000D+00 1.513000000000D+03 0.000000000000D+00
    2.800000000000D+00 0.000000000000D+00-4.190951585770D-09 4.500000000000D+01
    2.160000000000D+04
 2 09  1  4  8  0  0.0 1.633665524423D-04-1.932676241267D-12 0.000000000000D+00
    5.600000000000D+01 7.365625000000D+01 4.980564603364D-09-6.141065849871D-01
    3.807246685028D-06 8.898419910111D-03 8.489936590195D-06 5.153598646164D+03
    2.880000000000D+04 2.793967723846D-08 2.100824631253D+00-2.607703208923D-07
    9.418209350338D-01 2.087187500000D+02 2.694513325661D+00-8.337132989339D-09
    1.764359206929D-10 1.000000000000D+00 1.513000000000D+03 0.000000000000D+00
    2.000000000000D+00 0.000000000000D+00-1.722946763039D-08 5.600000000000D+01
    2.160000000000D+04
 1 09  1  4  8  0  0.0-3.063394688070D-04-5.502442945726D-11 0.000000000000D+00
    6.600000000000D+01-2.884375000000D+01 5.030209528418D-09 2.927636763457D+00
   -1.575797796249D-06 9.768719202839D-03 9.512528777122D-06 5.153752979279D+03
    2.880000000000D+04 8.940696716309D-08 9.959695896283D-01-3.725290298462D-09
    9.351856170004D-01 1.789375000000D+02-1.485517581541D+00-8.044620805033D-09
   -2.200091642648D-10 1.000000000000D+00 1.513000000000D+03 0.000000000000D+00
    2.000000000000D+00 6.300000000000D+01-2.328306436539D-09 6.600000000000D+01
    2.160000000000D+04
